LEMUR-2-GREENBERG       
1 42837U 17042N   26068.46200528  .00019778  00000+0  72539-3 0  9997
2 42837  97.3781 249.8007 0009157   4.0119 356.1192 15.27971352473146
STARLINK-3669           
1 51971U 22025R   26068.28248082  .00000934  00000+0  44702-4 0  9996
2 51971  53.1571  26.2555 0001196  96.9163 263.1974 15.29361516220952
